{
  "type": "FeatureCollection",
  "features": [
    {
      "type": "Feature",
      "geometry": {
        "type": "Point",
        "coordinates": [
          23.75,
          37.75
        ]
      },
      "properties": {
        "type": "early_warning",
        "escalation": 87.5,
        "cell_deg": 0.5,
        "neighbor_active": 0,
        "recent": 15.615,
        "baseline": 44.607,
        "ratio": 0.35,
        "src_mix": 2,
        "zone": null,
        "zone_mult": 1.0,
        "src_recent": {
          "GDELT": 9,
          "USGS": 0,
          "GDACS": 0,
          "RSS": 2
        }
      }
    },
    {
      "type": "Feature",
      "geometry": {
        "type": "Point",
        "coordinates": [
          22.25,
          39.25
        ]
      },
      "properties": {
        "type": "early_warning",
        "escalation": 45.0,
        "cell_deg": 0.5,
        "neighbor_active": 0,
        "recent": 7.8,
        "baseline": 19.5,
        "ratio": 0.395,
        "src_mix": 1,
        "zone": null,
        "zone_mult": 1.0,
        "src_recent": {
          "GDELT": 6,
          "USGS": 0,
          "GDACS": 0,
          "RSS": 0
        }
      }
    },
    {
      "type": "Feature",
      "geometry": {
        "type": "Point",
        "coordinates": [
          27.25,
          38.25
        ]
      },
      "properties": {
        "type": "early_warning",
        "escalation": 8.2,
        "cell_deg": 0.5,
        "neighbor_active": 0,
        "recent": 2.6,
        "baseline": 18.2,
        "ratio": 0.157,
        "src_mix": 1,
        "zone": "Görög–török Égei",
        "zone_mult": 1.25,
        "src_recent": {
          "GDELT": 2,
          "USGS": 0,
          "GDACS": 0,
          "RSS": 0
        }
      }
    },
    {
      "type": "Feature",
      "geometry": {
        "type": "Point",
        "coordinates": [
          15.75,
          45.25
        ]
      },
      "properties": {
        "type": "early_warning",
        "escalation": 8.6,
        "cell_deg": 0.5,
        "neighbor_active": 1,
        "recent": 2.6,
        "baseline": 14.3,
        "ratio": 0.196,
        "src_mix": 1,
        "zone": null,
        "zone_mult": 1.0,
        "src_recent": {
          "GDELT": 2,
          "USGS": 0,
          "GDACS": 0,
          "RSS": 0
        }
      }
    },
    {
      "type": "Feature",
      "geometry": {
        "type": "Point",
        "coordinates": [
          25.25,
          46.25
        ]
      },
      "properties": {
        "type": "early_warning",
        "escalation": 22.9,
        "cell_deg": 0.5,
        "neighbor_active": 0,
        "recent": 5.2,
        "baseline": 18.2,
        "ratio": 0.289,
        "src_mix": 1,
        "zone": null,
        "zone_mult": 1.0,
        "src_recent": {
          "GDELT": 4,
          "USGS": 0,
          "GDACS": 0,
          "RSS": 0
        }
      }
    },
    {
      "type": "Feature",
      "geometry": {
        "type": "Point",
        "coordinates": [
          20.25,
          47.25
        ]
      },
      "properties": {
        "type": "early_warning",
        "escalation": 24.3,
        "cell_deg": 0.5,
        "neighbor_active": 0,
        "recent": 5.2,
        "baseline": 16.9,
        "ratio": 0.31,
        "src_mix": 1,
        "zone": null,
        "zone_mult": 1.0,
        "src_recent": {
          "GDELT": 4,
          "USGS": 0,
          "GDACS": 0,
          "RSS": 0
        }
      }
    },
    {
      "type": "Feature",
      "geometry": {
        "type": "Point",
        "coordinates": [
          19.25,
          47.75
        ]
      },
      "properties": {
        "type": "early_warning",
        "escalation": 53.4,
        "cell_deg": 0.5,
        "neighbor_active": 0,
        "recent": 7.197,
        "baseline": 14.3,
        "ratio": 0.487,
        "src_mix": 2,
        "zone": null,
        "zone_mult": 1.0,
        "src_recent": {
          "GDELT": 4,
          "USGS": 0,
          "GDACS": 0,
          "RSS": 1
        }
      }
    },
    {
      "type": "Feature",
      "geometry": {
        "type": "Point",
        "coordinates": [
          28.75,
          45.25
        ]
      },
      "properties": {
        "type": "early_warning",
        "escalation": 100.0,
        "cell_deg": 0.5,
        "neighbor_active": 0,
        "recent": 5.2,
        "baseline": 1.3,
        "ratio": 2.036,
        "src_mix": 1,
        "zone": null,
        "zone_mult": 1.0,
        "src_recent": {
          "GDELT": 4,
          "USGS": 0,
          "GDACS": 0,
          "RSS": 0
        }
      }
    },
    {
      "type": "Feature",
      "geometry": {
        "type": "Point",
        "coordinates": [
          19.25,
          42.75
        ]
      },
      "properties": {
        "type": "early_warning",
        "escalation": 14.7,
        "cell_deg": 0.5,
        "neighbor_active": 0,
        "recent": 2.6,
        "baseline": 6.5,
        "ratio": 0.388,
        "src_mix": 1,
        "zone": null,
        "zone_mult": 1.0,
        "src_recent": {
          "GDELT": 2,
          "USGS": 0,
          "GDACS": 0,
          "RSS": 0
        }
      }
    },
    {
      "type": "Feature",
      "geometry": {
        "type": "Point",
        "coordinates": [
          23.25,
          42.75
        ]
      },
      "properties": {
        "type": "early_warning",
        "escalation": 3.2,
        "cell_deg": 0.5,
        "neighbor_active": 0,
        "recent": 1.3,
        "baseline": 10.4,
        "ratio": 0.151,
        "src_mix": 1,
        "zone": null,
        "zone_mult": 1.0,
        "src_recent": {
          "GDELT": 1,
          "USGS": 0,
          "GDACS": 0,
          "RSS": 0
        }
      }
    },
    {
      "type": "Feature",
      "geometry": {
        "type": "Point",
        "coordinates": [
          20.25,
          41.25
        ]
      },
      "properties": {
        "type": "early_warning",
        "escalation": 13.6,
        "cell_deg": 0.5,
        "neighbor_active": 0,
        "recent": 3.9,
        "baseline": 18.2,
        "ratio": 0.223,
        "src_mix": 1,
        "zone": null,
        "zone_mult": 1.0,
        "src_recent": {
          "GDELT": 3,
          "USGS": 0,
          "GDACS": 0,
          "RSS": 0
        }
      }
    },
    {
      "type": "Feature",
      "geometry": {
        "type": "Point",
        "coordinates": [
          22.25,
          40.25
        ]
      },
      "properties": {
        "type": "early_warning",
        "escalation": 5.4,
        "cell_deg": 0.5,
        "neighbor_active": 0,
        "recent": 1.3,
        "baseline": 5.2,
        "ratio": 0.269,
        "src_mix": 1,
        "zone": null,
        "zone_mult": 1.0,
        "src_recent": {
          "GDELT": 1,
          "USGS": 0,
          "GDACS": 0,
          "RSS": 0
        }
      }
    },
    {
      "type": "Feature",
      "geometry": {
        "type": "Point",
        "coordinates": [
          27.25,
          46.75
        ]
      },
      "properties": {
        "type": "early_warning",
        "escalation": 25.4,
        "cell_deg": 0.5,
        "neighbor_active": 0,
        "recent": 2.6,
        "baseline": 2.6,
        "ratio": 0.756,
        "src_mix": 1,
        "zone": null,
        "zone_mult": 1.0,
        "src_recent": {
          "GDELT": 2,
          "USGS": 0,
          "GDACS": 0,
          "RSS": 0
        }
      }
    },
    {
      "type": "Feature",
      "geometry": {
        "type": "Point",
        "coordinates": [
          15.25,
          45.25
        ]
      },
      "properties": {
        "type": "early_warning",
        "escalation": 11.8,
        "cell_deg": 0.5,
        "neighbor_active": 1,
        "recent": 1.3,
        "baseline": 1.3,
        "ratio": 0.643,
        "src_mix": 1,
        "zone": null,
        "zone_mult": 1.0,
        "src_recent": {
          "GDELT": 1,
          "USGS": 0,
          "GDACS": 0,
          "RSS": 0
        }
      }
    },
    {
      "type": "Feature",
      "geometry": {
        "type": "Point",
        "coordinates": [
          28.25,
          40.25
        ]
      },
      "properties": {
        "type": "early_warning",
        "escalation": 22.2,
        "cell_deg": 0.5,
        "neighbor_active": 0,
        "recent": 1.3,
        "baseline": 0.0,
        "ratio": 1.2,
        "src_mix": 1,
        "zone": "Görög–török Égei",
        "zone_mult": 1.25,
        "src_recent": {
          "GDELT": 1,
          "USGS": 0,
          "GDACS": 0,
          "RSS": 0
        }
      }
    },
    {
      "type": "Feature",
      "geometry": {
        "type": "Point",
        "coordinates": [
          16.25,
          45.75
        ]
      },
      "properties": {
        "type": "early_warning",
        "escalation": 11.0,
        "cell_deg": 0.5,
        "neighbor_active": 1,
        "recent": 2.6,
        "baseline": 10.4,
        "ratio": 0.261,
        "src_mix": 1,
        "zone": null,
        "zone_mult": 1.0,
        "src_recent": {
          "GDELT": 2,
          "USGS": 0,
          "GDACS": 0,
          "RSS": 0
        }
      }
    },
    {
      "type": "Feature",
      "geometry": {
        "type": "Point",
        "coordinates": [
          15.25,
          46.25
        ]
      },
      "properties": {
        "type": "early_warning",
        "escalation": 7.0,
        "cell_deg": 0.5,
        "neighbor_active": 1,
        "recent": 2.6,
        "baseline": 18.2,
        "ratio": 0.157,
        "src_mix": 1,
        "zone": null,
        "zone_mult": 1.0,
        "src_recent": {
          "GDELT": 2,
          "USGS": 0,
          "GDACS": 0,
          "RSS": 0
        }
      }
    },
    {
      "type": "Feature",
      "geometry": {
        "type": "Point",
        "coordinates": [
          21.75,
          39.75
        ]
      },
      "properties": {
        "type": "early_warning",
        "escalation": 11.8,
        "cell_deg": 0.5,
        "neighbor_active": 1,
        "recent": 1.3,
        "baseline": 1.3,
        "ratio": 0.643,
        "src_mix": 1,
        "zone": null,
        "zone_mult": 1.0,
        "src_recent": {
          "GDELT": 1,
          "USGS": 0,
          "GDACS": 0,
          "RSS": 0
        }
      }
    },
    {
      "type": "Feature",
      "geometry": {
        "type": "Point",
        "coordinates": [
          29.25,
          47.25
        ]
      },
      "properties": {
        "type": "early_warning",
        "escalation": 16.7,
        "cell_deg": 0.5,
        "neighbor_active": 0,
        "recent": 3.9,
        "baseline": 19.5,
        "ratio": 0.21,
        "src_mix": 1,
        "zone": "Moldova–Transznisztria",
        "zone_mult": 1.3,
        "src_recent": {
          "GDELT": 3,
          "USGS": 0,
          "GDACS": 0,
          "RSS": 0
        }
      }
    },
    {
      "type": "Feature",
      "geometry": {
        "type": "Point",
        "coordinates": [
          27.75,
          39.75
        ]
      },
      "properties": {
        "type": "early_warning",
        "escalation": 22.2,
        "cell_deg": 0.5,
        "neighbor_active": 0,
        "recent": 1.3,
        "baseline": 0.0,
        "ratio": 1.2,
        "src_mix": 1,
        "zone": "Görög–török Égei",
        "zone_mult": 1.25,
        "src_recent": {
          "GDELT": 1,
          "USGS": 0,
          "GDACS": 0,
          "RSS": 0
        }
      }
    },
    {
      "type": "Feature",
      "geometry": {
        "type": "Point",
        "coordinates": [
          25.25,
          43.25
        ]
      },
      "properties": {
        "type": "early_warning",
        "escalation": 8.1,
        "cell_deg": 0.5,
        "neighbor_active": 0,
        "recent": 2.6,
        "baseline": 14.3,
        "ratio": 0.196,
        "src_mix": 1,
        "zone": null,
        "zone_mult": 1.0,
        "src_recent": {
          "GDELT": 2,
          "USGS": 0,
          "GDACS": 0,
          "RSS": 0
        }
      }
    },
    {
      "type": "Feature",
      "geometry": {
        "type": "Point",
        "coordinates": [
          19.75,
          41.25
        ]
      },
      "properties": {
        "type": "early_warning",
        "escalation": 3.5,
        "cell_deg": 0.5,
        "neighbor_active": 0,
        "recent": 1.3,
        "baseline": 9.1,
        "ratio": 0.17,
        "src_mix": 1,
        "zone": null,
        "zone_mult": 1.0,
        "src_recent": {
          "GDELT": 1,
          "USGS": 0,
          "GDACS": 0,
          "RSS": 0
        }
      }
    },
    {
      "type": "Feature",
      "geometry": {
        "type": "Point",
        "coordinates": [
          26.25,
          44.25
        ]
      },
      "properties": {
        "type": "early_warning",
        "escalation": 20.6,
        "cell_deg": 0.5,
        "neighbor_active": 0,
        "recent": 4.643,
        "baseline": 17.756,
        "ratio": 0.267,
        "src_mix": 2,
        "zone": null,
        "zone_mult": 1.0,
        "src_recent": {
          "GDELT": 2,
          "USGS": 0,
          "GDACS": 0,
          "RSS": 1
        }
      }
    },
    {
      "type": "Feature",
      "geometry": {
        "type": "Point",
        "coordinates": [
          22.25,
          37.25
        ]
      },
      "properties": {
        "type": "early_warning",
        "escalation": 6.5,
        "cell_deg": 0.5,
        "neighbor_active": 0,
        "recent": 1.3,
        "baseline": 3.9,
        "ratio": 0.333,
        "src_mix": 1,
        "zone": null,
        "zone_mult": 1.0,
        "src_recent": {
          "GDELT": 1,
          "USGS": 0,
          "GDACS": 0,
          "RSS": 0
        }
      }
    },
    {
      "type": "Feature",
      "geometry": {
        "type": "Point",
        "coordinates": [
          21.25,
          42.75
        ]
      },
      "properties": {
        "type": "early_warning",
        "escalation": 10.1,
        "cell_deg": 0.5,
        "neighbor_active": 0,
        "recent": 2.6,
        "baseline": 15.6,
        "ratio": 0.181,
        "src_mix": 1,
        "zone": "Kosovo–Serbia",
        "zone_mult": 1.35,
        "src_recent": {
          "GDELT": 2,
          "USGS": 0,
          "GDACS": 0,
          "RSS": 0
        }
      }
    },
    {
      "type": "Feature",
      "geometry": {
        "type": "Point",
        "coordinates": [
          15.75,
          45.75
        ]
      },
      "properties": {
        "type": "early_warning",
        "escalation": 79.4,
        "cell_deg": 0.5,
        "neighbor_active": 0,
        "recent": 3.342,
        "baseline": 0.0,
        "ratio": 2.562,
        "src_mix": 2,
        "zone": null,
        "zone_mult": 1.0,
        "src_recent": {
          "GDELT": 1,
          "USGS": 0,
          "GDACS": 0,
          "RSS": 1
        }
      }
    },
    {
      "type": "Feature",
      "geometry": {
        "type": "Point",
        "coordinates": [
          24.25,
          45.75
        ]
      },
      "properties": {
        "type": "early_warning",
        "escalation": 11.2,
        "cell_deg": 0.5,
        "neighbor_active": 0,
        "recent": 1.3,
        "baseline": 1.3,
        "ratio": 0.643,
        "src_mix": 1,
        "zone": null,
        "zone_mult": 1.0,
        "src_recent": {
          "GDELT": 1,
          "USGS": 0,
          "GDACS": 0,
          "RSS": 0
        }
      }
    },
    {
      "type": "Feature",
      "geometry": {
        "type": "Point",
        "coordinates": [
          14.75,
          46.25
        ]
      },
      "properties": {
        "type": "early_warning",
        "escalation": 4.0,
        "cell_deg": 0.5,
        "neighbor_active": 0,
        "recent": 1.3,
        "baseline": 7.8,
        "ratio": 0.194,
        "src_mix": 1,
        "zone": null,
        "zone_mult": 1.0,
        "src_recent": {
          "GDELT": 1,
          "USGS": 0,
          "GDACS": 0,
          "RSS": 0
        }
      }
    },
    {
      "type": "Feature",
      "geometry": {
        "type": "Point",
        "coordinates": [
          18.25,
          43.75
        ]
      },
      "properties": {
        "type": "early_warning",
        "escalation": 39.7,
        "cell_deg": 0.5,
        "neighbor_active": 0,
        "recent": 3.313,
        "baseline": 3.9,
        "ratio": 0.706,
        "src_mix": 2,
        "zone": "Bosznia (entitásvonal tág)",
        "zone_mult": 1.2,
        "src_recent": {
          "GDELT": 1,
          "USGS": 0,
          "GDACS": 0,
          "RSS": 1
        }
      }
    },
    {
      "type": "Feature",
      "geometry": {
        "type": "Point",
        "coordinates": [
          25.25,
          46.75
        ]
      },
      "properties": {
        "type": "early_warning",
        "escalation": 8.2,
        "cell_deg": 0.5,
        "neighbor_active": 0,
        "recent": 1.3,
        "baseline": 2.6,
        "ratio": 0.439,
        "src_mix": 1,
        "zone": null,
        "zone_mult": 1.0,
        "src_recent": {
          "GDELT": 1,
          "USGS": 0,
          "GDACS": 0,
          "RSS": 0
        }
      }
    },
    {
      "type": "Feature",
      "geometry": {
        "type": "Point",
        "coordinates": [
          21.75,
          39.25
        ]
      },
      "properties": {
        "type": "early_warning",
        "escalation": 5.7,
        "cell_deg": 0.5,
        "neighbor_active": 1,
        "recent": 1.3,
        "baseline": 5.2,
        "ratio": 0.269,
        "src_mix": 1,
        "zone": null,
        "zone_mult": 1.0,
        "src_recent": {
          "GDELT": 1,
          "USGS": 0,
          "GDACS": 0,
          "RSS": 0
        }
      }
    },
    {
      "type": "Feature",
      "geometry": {
        "type": "Point",
        "coordinates": [
          26.75,
          43.25
        ]
      },
      "properties": {
        "type": "early_warning",
        "escalation": 17.8,
        "cell_deg": 0.5,
        "neighbor_active": 0,
        "recent": 1.3,
        "baseline": 0.0,
        "ratio": 1.2,
        "src_mix": 1,
        "zone": null,
        "zone_mult": 1.0,
        "src_recent": {
          "GDELT": 1,
          "USGS": 0,
          "GDACS": 0,
          "RSS": 0
        }
      }
    },
    {
      "type": "Feature",
      "geometry": {
        "type": "Point",
        "coordinates": [
          26.75,
          40.75
        ]
      },
      "properties": {
        "type": "early_warning",
        "escalation": 14.0,
        "cell_deg": 0.5,
        "neighbor_active": 0,
        "recent": 1.3,
        "baseline": 1.3,
        "ratio": 0.643,
        "src_mix": 1,
        "zone": "Görög–török Égei",
        "zone_mult": 1.25,
        "src_recent": {
          "GDELT": 1,
          "USGS": 0,
          "GDACS": 0,
          "RSS": 0
        }
      }
    },
    {
      "type": "Feature",
      "geometry": {
        "type": "Point",
        "coordinates": [
          28.75,
          39.25
        ]
      },
      "properties": {
        "type": "early_warning",
        "escalation": 22.2,
        "cell_deg": 0.5,
        "neighbor_active": 0,
        "recent": 1.3,
        "baseline": 0.0,
        "ratio": 1.2,
        "src_mix": 1,
        "zone": "Görög–török Égei",
        "zone_mult": 1.25,
        "src_recent": {
          "GDELT": 1,
          "USGS": 0,
          "GDACS": 0,
          "RSS": 0
        }
      }
    },
    {
      "type": "Feature",
      "geometry": {
        "type": "Point",
        "coordinates": [
          25.75,
          44.75
        ]
      },
      "properties": {
        "type": "early_warning",
        "escalation": 11.2,
        "cell_deg": 0.5,
        "neighbor_active": 0,
        "recent": 1.3,
        "baseline": 1.3,
        "ratio": 0.643,
        "src_mix": 1,
        "zone": null,
        "zone_mult": 1.0,
        "src_recent": {
          "GDELT": 1,
          "USGS": 0,
          "GDACS": 0,
          "RSS": 0
        }
      }
    },
    {
      "type": "Feature",
      "geometry": {
        "type": "Point",
        "coordinates": [
          25.75,
          40.75
        ]
      },
      "properties": {
        "type": "early_warning",
        "escalation": 14.0,
        "cell_deg": 0.5,
        "neighbor_active": 0,
        "recent": 1.3,
        "baseline": 1.3,
        "ratio": 0.643,
        "src_mix": 1,
        "zone": "Görög–török Égei",
        "zone_mult": 1.25,
        "src_recent": {
          "GDELT": 1,
          "USGS": 0,
          "GDACS": 0,
          "RSS": 0
        }
      }
    },
    {
      "type": "Feature",
      "geometry": {
        "type": "Point",
        "coordinates": [
          20.75,
          42.75
        ]
      },
      "properties": {
        "type": "early_warning",
        "escalation": 8.7,
        "cell_deg": 0.5,
        "neighbor_active": 0,
        "recent": 1.3,
        "baseline": 3.9,
        "ratio": 0.333,
        "src_mix": 1,
        "zone": "Kosovo–Serbia",
        "zone_mult": 1.35,
        "src_recent": {
          "GDELT": 1,
          "USGS": 0,
          "GDACS": 0,
          "RSS": 0
        }
      }
    },
    {
      "type": "Feature",
      "geometry": {
        "type": "Point",
        "coordinates": [
          19.25,
          41.25
        ]
      },
      "properties": {
        "type": "early_warning",
        "escalation": 11.2,
        "cell_deg": 0.5,
        "neighbor_active": 0,
        "recent": 1.3,
        "baseline": 1.3,
        "ratio": 0.643,
        "src_mix": 1,
        "zone": null,
        "zone_mult": 1.0,
        "src_recent": {
          "GDELT": 1,
          "USGS": 0,
          "GDACS": 0,
          "RSS": 0
        }
      }
    },
    {
      "type": "Feature",
      "geometry": {
        "type": "Point",
        "coordinates": [
          20.75,
          39.75
        ]
      },
      "properties": {
        "type": "early_warning",
        "escalation": 8.2,
        "cell_deg": 0.5,
        "neighbor_active": 0,
        "recent": 1.3,
        "baseline": 2.6,
        "ratio": 0.439,
        "src_mix": 1,
        "zone": null,
        "zone_mult": 1.0,
        "src_recent": {
          "GDELT": 1,
          "USGS": 0,
          "GDACS": 0,
          "RSS": 0
        }
      }
    },
    {
      "type": "Feature",
      "geometry": {
        "type": "Point",
        "coordinates": [
          24.25,
          37.75
        ]
      },
      "properties": {
        "type": "early_warning",
        "escalation": 14.8,
        "cell_deg": 0.5,
        "neighbor_active": 1,
        "recent": 1.3,
        "baseline": 1.3,
        "ratio": 0.643,
        "src_mix": 1,
        "zone": "Görög–török Égei",
        "zone_mult": 1.25,
        "src_recent": {
          "GDELT": 1,
          "USGS": 0,
          "GDACS": 0,
          "RSS": 0
        }
      }
    },
    {
      "type": "Feature",
      "geometry": {
        "type": "Point",
        "coordinates": [
          29.25,
          40.25
        ]
      },
      "properties": {
        "type": "early_warning",
        "escalation": 5.4,
        "cell_deg": 0.5,
        "neighbor_active": 0,
        "recent": 1.3,
        "baseline": 5.2,
        "ratio": 0.269,
        "src_mix": 1,
        "zone": null,
        "zone_mult": 1.0,
        "src_recent": {
          "GDELT": 1,
          "USGS": 0,
          "GDACS": 0,
          "RSS": 0
        }
      }
    },
    {
      "type": "Feature",
      "geometry": {
        "type": "Point",
        "coordinates": [
          23.25,
          41.25
        ]
      },
      "properties": {
        "type": "early_warning",
        "escalation": 11.2,
        "cell_deg": 0.5,
        "neighbor_active": 0,
        "recent": 1.3,
        "baseline": 1.3,
        "ratio": 0.643,
        "src_mix": 1,
        "zone": null,
        "zone_mult": 1.0,
        "src_recent": {
          "GDELT": 1,
          "USGS": 0,
          "GDACS": 0,
          "RSS": 0
        }
      }
    },
    {
      "type": "Feature",
      "geometry": {
        "type": "Point",
        "coordinates": [
          32.75,
          39.75
        ]
      },
      "properties": {
        "type": "early_warning",
        "escalation": 9.3,
        "cell_deg": 0.5,
        "neighbor_active": 0,
        "recent": 1.933,
        "baseline": 6.073,
        "ratio": 0.321,
        "src_mix": 1,
        "zone": null,
        "zone_mult": 1.0,
        "src_recent": {
          "GDELT": 0,
          "USGS": 0,
          "GDACS": 0,
          "RSS": 1
        }
      }
    }
  ]
}