{
  "type": "FeatureCollection",
  "features": [
    {
      "type": "Feature",
      "geometry": {
        "type": "Point",
        "coordinates": [
          13.8442901,
          45.8237883
        ]
      },
      "properties": {
        "source": "GDACS",
        "kind": "disaster_alert",
        "category": "natural",
        "title": "Green flood alert in Slovenia",
        "time": "2026-10-10T07:26:12Z",
        "url": "https://www.gdacs.org/report.aspx?eventtype=FL&amp;eventid=1104221",
        "type": "Alert"
      }
    }
  ]
}