{
  "type": "FeatureCollection",
  "features": [
    {
      "type": "Feature",
      "geometry": {
        "type": "Point",
        "coordinates": [
          15.98,
          45.81
        ]
      },
      "properties": {
        "source": "RSS",
        "kind": "trusted_rss_signal",
        "type": "NewsSignal",
        "time": "2026-09-28T02:00:00Z",
        "date": "2026-09-28",
        "title": "Europe’s divided conservatives launch 2029 plan to beat far right",
        "location": "Croatia",
        "country": "Croatia",
        "category": "political",
        "dimensions": [
          "political",
          "policing",
          "migration",
          "social",
          "infrastructure"
        ],
        "signal_score": 1.3733,
        "confidence_boost": 0.3684,
        "sources_count": 1,
        "sources": [
          "https://www.politico.eu/article/europes-divided-conservatives-launch-2029-plan-to-beat-far-right/?utm_source=RSS_Feed&utm_medium=RSS&utm_campaign=RSS_Syndication"
        ],
        "url": "https://www.politico.eu/article/europes-divided-conservatives-launch-2029-plan-to-beat-far-right/?utm_source=RSS_Feed&utm_medium=RSS&utm_campaign=RSS_Syndication",
        "source_name": "Politico Europe",
        "anchor": "country_capital",
        "summary": "Europe’s divided conservatives launch 2029 plan to beat far right As Manfred Weber launches a task force to shape the EPP’s 2029 platform, internal records and interviews reveal the party’s defining choice: hold the center or move further right. By MAX GRIERA in Brussels Illustration by Natália Delgado/POLITICO Europe’s biggest political family is already preparing its 2029 election strategy to win back voters from the far right — even as its own members split over whether to work with those par"
      }
    },
    {
      "type": "Feature",
      "geometry": {
        "type": "Point",
        "coordinates": [
          21.43,
          41.99
        ]
      },
      "properties": {
        "source": "RSS",
        "kind": "trusted_rss_signal",
        "type": "NewsSignal",
        "time": "2026-09-27T20:33:01Z",
        "date": "2026-09-27",
        "title": "EU is drawing up membership action plans for most promising candidates",
        "location": "North Macedonia",
        "country": "North Macedonia",
        "category": "political",
        "dimensions": [
          "political",
          "social",
          "infrastructure"
        ],
        "signal_score": 1.1031,
        "confidence_boost": 0.3684,
        "sources_count": 1,
        "sources": [
          "https://www.politico.eu/article/eu-membership-action-plans-montenegro-ukraine-moldova-albania/?utm_source=RSS_Feed&utm_medium=RSS&utm_campaign=RSS_Syndication"
        ],
        "url": "https://www.politico.eu/article/eu-membership-action-plans-montenegro-ukraine-moldova-albania/?utm_source=RSS_Feed&utm_medium=RSS&utm_campaign=RSS_Syndication",
        "source_name": "Politico Europe",
        "anchor": "country_capital",
        "summary": "BRUSSELS — The EU is developing proposals that would see the four countries closest to joining the bloc given a clear, step-by-step path toward membership — while the others languish behind. Targeted “roadmaps” are being considered for Montenegro, Ukraine, Moldova and Albania, two senior European Commission officials working on the draft proposals told POLITICO, as part of efforts to speed up the decades-long process. They were granted anonymity to speak about the sensitive plans. The four count"
      }
    },
    {
      "type": "Feature",
      "geometry": {
        "type": "Point",
        "coordinates": [
          20.46,
          44.82
        ]
      },
      "properties": {
        "source": "RSS",
        "kind": "trusted_rss_signal",
        "type": "NewsSignal",
        "time": "2026-09-27T19:09:38Z",
        "date": "2026-09-27",
        "title": "Serbia’s populist president Aleksandar Vučić resigns to run for prime minister",
        "location": "Serbia",
        "country": "Serbia",
        "category": "political",
        "dimensions": [
          "political",
          "social"
        ],
        "signal_score": 1.1034,
        "confidence_boost": 0.381,
        "sources_count": 1,
        "sources": [
          "https://www.theguardian.com/world/2026/sep/27/serbia-president-aleksandar-vucic-resigns-run-prime-minister"
        ],
        "url": "https://www.theguardian.com/world/2026/sep/27/serbia-president-aleksandar-vucic-resigns-run-prime-minister",
        "source_name": "The Guardian",
        "anchor": "country_capital",
        "summary": "Vučić not allowed to seek third presidential term and election will test his grip on rule after widespread protests Serbia’s populist president, Aleksandar Vučić, has resigned to pursue an attempt to become prime minister in an early parliamentary election that will test his firm rule in the Balkan country after nearly two years of protests. Vučić’s second presidential term would otherwise end in May next year. He is banned by the constitution from seeking a third term and said he was resigning "
      }
    },
    {
      "type": "Feature",
      "geometry": {
        "type": "Point",
        "coordinates": [
          20.46,
          44.82
        ]
      },
      "properties": {
        "source": "RSS",
        "kind": "trusted_rss_signal",
        "type": "NewsSignal",
        "time": "2026-09-27T14:58:18Z",
        "date": "2026-09-27",
        "title": "Serbia's politicians return to TV debates ahead of parliamentary election",
        "location": "Serbia",
        "country": "Serbia",
        "category": "political",
        "dimensions": [
          "political",
          "infrastructure"
        ],
        "signal_score": 0.9831,
        "confidence_boost": 0.3756,
        "sources_count": 1,
        "sources": [
          "https://www.euronews.com/2026/09/27/serbias-politicians-return-to-tv-debates-ahead-of-parliamentary-election"
        ],
        "url": "https://www.euronews.com/2026/09/27/serbias-politicians-return-to-tv-debates-ahead-of-parliamentary-election",
        "source_name": "Euronews",
        "anchor": "country_capital",
        "summary": "A month before the early parliamentary elections, Serbia's high ranking politicians from the ruling and opposition parties engaged in a debate on the N1 channel after a prolonged boycott between the anti-government station and officials. The ownership change provided a new opportunity for dialogue."
      }
    },
    {
      "type": "Feature",
      "geometry": {
        "type": "Point",
        "coordinates": [
          26.1,
          44.43
        ]
      },
      "properties": {
        "source": "RSS",
        "kind": "trusted_rss_signal",
        "type": "NewsSignal",
        "time": "2026-09-26T20:42:20Z",
        "date": "2026-09-26",
        "title": "Paws for applause: the Feline Oscars – in pictures",
        "location": "Romania",
        "country": "Romania",
        "category": "political",
        "dimensions": [
          "political"
        ],
        "signal_score": 0.8331,
        "confidence_boost": 0.381,
        "sources_count": 1,
        "sources": [
          "https://www.theguardian.com/world/gallery/2026/sep/26/paws-for-applause-the-feline-oscars-in-pictures"
        ],
        "url": "https://www.theguardian.com/world/gallery/2026/sep/26/paws-for-applause-the-feline-oscars-in-pictures",
        "source_name": "The Guardian Europe",
        "anchor": "country_capital",
        "summary": "More than 200 cats came to compete in the Romania International Cat Show, an international feline beauty contest known as the Feline Oscars, in Bucharest Continue reading..."
      }
    },
    {
      "type": "Feature",
      "geometry": {
        "type": "Point",
        "coordinates": [
          23.73,
          37.98
        ]
      },
      "properties": {
        "source": "RSS",
        "kind": "trusted_rss_signal",
        "type": "NewsSignal",
        "time": "2026-09-26T16:54:55Z",
        "date": "2026-09-26",
        "title": "Greek authorities seek answers after six killed in Athens apartment block explosion",
        "location": "Greece",
        "country": "Greece",
        "category": "political",
        "dimensions": [
          "political"
        ],
        "signal_score": 0.8331,
        "confidence_boost": 0.381,
        "sources_count": 1,
        "sources": [
          "https://www.theguardian.com/world/2026/sep/26/greek-authorities-seek-answers-after-six-killed-in-athens-apartment-block-explosion"
        ],
        "url": "https://www.theguardian.com/world/2026/sep/26/greek-authorities-seek-answers-after-six-killed-in-athens-apartment-block-explosion",
        "source_name": "The Guardian",
        "anchor": "country_capital",
        "summary": "Emergency teams discovered victims after two-storey building in historic Plaka district collapsed ‘in seconds’ Greek authorities say they are trying to discover what caused a two-storey apartment block in the heart of ancient Athens to collapse “in a matter of seconds”, killing six people. Emergency teams found the victims, including four American tourists, on Saturday, more than 24 hours after the early morning explosion in the historic Plaka district. Continue reading..."
      }
    },
    {
      "type": "Feature",
      "geometry": {
        "type": "Point",
        "coordinates": [
          18.41,
          43.86
        ]
      },
      "properties": {
        "source": "RSS",
        "kind": "trusted_rss_signal",
        "type": "NewsSignal",
        "time": "2026-09-26T09:28:45Z",
        "date": "2026-09-26",
        "title": "Russia strikes Ukraine as Putin denies plans to attack Europe amid growing tensions",
        "location": "Bosnia and Herzegovina",
        "country": "Bosnia and Herzegovina",
        "category": "political",
        "dimensions": [
          "political",
          "social"
        ],
        "signal_score": 0.8762,
        "confidence_boost": 0.3756,
        "sources_count": 1,
        "sources": [
          "https://www.euronews.com/2026/09/26/at-least-six-people-killed-in-russian-strikes-on-ukraine-over-last-24-hours"
        ],
        "url": "https://www.euronews.com/2026/09/26/at-least-six-people-killed-in-russian-strikes-on-ukraine-over-last-24-hours",
        "source_name": "Euronews",
        "anchor": "country_capital",
        "summary": "On Saturday, Ukrainian Foreign Minister Andrii Sybiha said Russia had also carried out a \"double strike\" attack on a logistics facility serving fast-food chain McDonald’s."
      }
    },
    {
      "type": "Feature",
      "geometry": {
        "type": "Point",
        "coordinates": [
          19.04,
          47.5
        ]
      },
      "properties": {
        "source": "RSS",
        "kind": "trusted_rss_signal",
        "type": "NewsSignal",
        "time": "2026-09-25T13:31:13Z",
        "date": "2026-09-25",
        "title": "Zelenskyy warns $27B funding gap could leave Ukraine short of weapons",
        "location": "Hungary",
        "country": "Hungary",
        "category": "political",
        "dimensions": [
          "political",
          "military",
          "social",
          "infrastructure"
        ],
        "signal_score": 0.9709,
        "confidence_boost": 0.3684,
        "sources_count": 1,
        "sources": [
          "https://www.politico.eu/article/if-ukraine-fails-to-order-new-drones-soon-it-risks-challenges-at-war-early-next-year-zelenskyy-said/?utm_source=RSS_Feed&utm_medium=RSS&utm_campaign=RSS_Syndication"
        ],
        "url": "https://www.politico.eu/article/if-ukraine-fails-to-order-new-drones-soon-it-risks-challenges-at-war-early-next-year-zelenskyy-said/?utm_source=RSS_Feed&utm_medium=RSS&utm_campaign=RSS_Syndication",
        "source_name": "Politico Europe",
        "anchor": "country_capital",
        "summary": "KYIV — Ukraine needs to secure $27 billion to plug a hole in its defense budget in the next two months or risk being unable to buy weapons early next year, President Volodymyr Zelenskyy told reporters in a WhatsApp chat Friday. “Most of this money is for our drones, missiles, and supplies for our warriors. About a third of this money, perhaps even a little more, is for drones for January, February, and March. And if we do not order and pay for them in October and November, we will face serious c"
      }
    },
    {
      "type": "Feature",
      "geometry": {
        "type": "Point",
        "coordinates": [
          23.73,
          37.98
        ]
      },
      "properties": {
        "source": "RSS",
        "kind": "trusted_rss_signal",
        "type": "NewsSignal",
        "time": "2026-09-25T12:48:20Z",
        "date": "2026-09-25",
        "title": "Explosion near Acropolis collapses building in Athens’ Plaka, injuring two",
        "location": "Greece",
        "country": "Greece",
        "category": "policing",
        "dimensions": [
          "policing",
          "infrastructure"
        ],
        "signal_score": 0.7694,
        "confidence_boost": 0.3756,
        "sources_count": 1,
        "sources": [
          "https://www.euronews.com/video/2026/09/25/explosion-near-acropolis-collapses-building-in-athens-plaka-injuring-two"
        ],
        "url": "https://www.euronews.com/video/2026/09/25/explosion-near-acropolis-collapses-building-in-athens-plaka-injuring-two",
        "source_name": "Euronews",
        "anchor": "country_capital",
        "summary": "A powerful explosion in Athens’ historic Plaka district brought down a two-storey building near the Acropolis on Friday 25 September 2026, injuring at least two people. The cause remains under investigation, although a gas leak is suspected."
      }
    },
    {
      "type": "Feature",
      "geometry": {
        "type": "Point",
        "coordinates": [
          32.85,
          39.93
        ]
      },
      "properties": {
        "source": "RSS",
        "kind": "trusted_rss_signal",
        "type": "NewsSignal",
        "time": "2026-09-25T12:31:56Z",
        "date": "2026-09-25",
        "title": "Turkish forces to withdraw from strategic military base in northern Iraq",
        "location": "Turkey",
        "country": "Turkey",
        "category": "political",
        "dimensions": [
          "political",
          "military"
        ],
        "signal_score": 0.7694,
        "confidence_boost": 0.3756,
        "sources_count": 1,
        "sources": [
          "https://www.euronews.com/2026/09/25/turkish-army-to-withdraw-from-strategic-military-base-in-northern-iraq"
        ],
        "url": "https://www.euronews.com/2026/09/25/turkish-army-to-withdraw-from-strategic-military-base-in-northern-iraq",
        "source_name": "Euronews",
        "anchor": "country_capital",
        "summary": "Turkey will gradually hand over the Bashiqa-Zilkan camp, where it has had troops since 2015, to the Iraqi government."
      }
    },
    {
      "type": "Feature",
      "geometry": {
        "type": "Point",
        "coordinates": [
          15.98,
          45.81
        ]
      },
      "properties": {
        "source": "RSS",
        "kind": "trusted_rss_signal",
        "type": "NewsSignal",
        "time": "2026-09-25T11:00:48Z",
        "date": "2026-09-25",
        "title": "‘We don’t have time for more promises’: the Croatian town that took on an illegal waste dump",
        "location": "Croatia",
        "country": "Croatia",
        "category": "political",
        "dimensions": [
          "political",
          "social"
        ],
        "signal_score": 1.0152,
        "confidence_boost": 0.381,
        "sources_count": 1,
        "sources": [
          "https://www.theguardian.com/environment/2026/sep/25/toxic-waste-dumped-croatian-town-gospic"
        ],
        "url": "https://www.theguardian.com/environment/2026/sep/25/toxic-waste-dumped-croatian-town-gospic",
        "source_name": "The Guardian Europe",
        "anchor": "country_capital",
        "summary": "After years of illegal mass flytipping in Gospić, fed-up residents decided to take matters into their own hands “Gospić is our home,” Željka Šikić shouted to a crowd of 40,000 people outside the Croatian parliament earlier this month. The slogan is the name of a campaign she helped to set up to protest against the illegal dumping of waste in Gospić, a town in the mountainous Lika region of central Croatia. Between 2022 and 2024, waste was illegally abandoned at several sites in the town. At one "
      }
    }
  ]
}