{
  "type": "FeatureCollection",
  "features": [
    {
      "type": "Feature",
      "geometry": {
        "type": "Point",
        "coordinates": [
          23.2795,
          38.3276
        ]
      },
      "properties": {
        "source": "USGS",
        "kind": "earthquake",
        "category": "natural",
        "mag": 4.6,
        "place": "3 km W of Thívai, Greece",
        "time": "2026-09-30T05:20:59Z",
        "url": "https://earthquake.usgs.gov/earthquakes/eventpage/us6000tyhn",
        "title": "M 4.6 - 3 km W of Thívai, Greece",
        "type": "Earthquake"
      }
    }
  ]
}